{"type": "FeatureCollection", "features": [ {"type": "Feature", "properties": {"norad_id": 30331, "name": "FENGYUN 1C DEB", "group": "fengyun-1c-debris", "lat": -4.003359054804602, "lon": -168.17591015952183, "alt_km": 966.3681322798902, "timestamp": "2025-12-03T15:48:03.346995+00:00", "meta": {"OBJECT_NAME": "FENGYUN 1C DEB", "OBJECT_ID": "1999-025AAS", "EPOCH": "2025-12-03T01:25:54.428736", "MEAN_MOTION": 13.97812068, "ECCENTRICITY": 0.00970738, "INCLINATION": 98.9583, "RA_OF_ASC_NODE": 11.8725, "ARG_OF_PERICENTER": 34.6643, "MEAN_ANOMALY": 17.5731, "EPHEMERIS_TYPE": 0, "CLASSIFICATION_TYPE": "U", "NORAD_CAT_ID": 30331, "ELEMENT_SET_NO": 999, "REV_AT_EPOCH": 95984, "BSTAR": 0.00056465774, "MEAN_MOTION_DOT": 7.89e-06, "MEAN_MOTION_DDOT": 0}, "tle": {"line1": "1 30331U 99025AAS 25337.05965774  .00000789  00000+0  56466-3 0  9991", "line2": "2 30331  98.9583  11.8725 0097073  34.6643  17.5731 13.97812068959844"}}, "geometry": {"type": "Point", "coordinates": [-168.17591015952183, -4.003359054804602]}}, {"type": "Feature", "properties": {"norad_id": 30332, "name": "FENGYUN 1C DEB", "group": "fengyun-1c-debris", "lat": 3.7920319751311555, "lon": 129.64046213070168, "alt_km": 891.6631996744991, "timestamp": "2025-12-03T15:48:03.347004+00:00", "meta": {"OBJECT_NAME": "FENGYUN 1C DEB", "OBJECT_ID": "1999-025AAT", "EPOCH": "2025-12-03T04:35:46.789728", "MEAN_MOTION": 13.76697034, "ECCENTRICITY": 0.01779385, "INCLINATION": 99.7141, "RA_OF_ASC_NODE": 308.5134, "ARG_OF_PERICENTER": 127.7186, "MEAN_ANOMALY": 254.1931, "EPHEMERIS_TYPE": 0, "CLASSIFICATION_TYPE": "U", "NORAD_CAT_ID": 30332, "ELEMENT_SET_NO": 999, "REV_AT_EPOCH": 94584, "BSTAR": 0.00044303248, "MEAN_MOTION_DOT": 4.43e-06, "MEAN_MOTION_DDOT": 0}, "tle": {"line1": "1 30332U 99025AAT 25337.19151377  .00000443  00000+0  44303-3 0  9997", "line2": "2 30332  99.7141 308.5134 0177938 127.7186 254.1931 13.76697034945846"}}, "geometry": {"type": "Point", "coordinates": [129.64046213070168, 3.7920319751311555]}}, {"type": "Feature", "properties": {"norad_id": 30334, "name": "FENGYUN 1C DEB", "group": "fengyun-1c-debris", "lat": -26.809584731501978, "lon": 82.07875715579289, "alt_km": 838.0100277423835, "timestamp": "2025-12-03T15:48:03.347013+00:00", "meta": {"OBJECT_NAME": "FENGYUN 1C DEB", "OBJECT_ID": "1999-025AAV", "EPOCH": "2025-12-03T05:52:50.700864", "MEAN_MOTION": 13.92330154, "ECCENTRICITY": 0.01448409, "INCLINATION": 99.0214, "RA_OF_ASC_NODE": 77.0715, "ARG_OF_PERICENTER": 8.1013, "MEAN_ANOMALY": 55.0559, "EPHEMERIS_TYPE": 0, "CLASSIFICATION_TYPE": "U", "NORAD_CAT_ID": 30334, "ELEMENT_SET_NO": 999, "REV_AT_EPOCH": 95089, "BSTAR": 0.0015203257, "MEAN_MOTION_DOT": 2.085e-05, "MEAN_MOTION_DDOT": 0}, "tle": {"line1": "1 30334U 99025AAV 25337.24503126  .00002085  00000+0  15203-2 0  9998", "line2": "2 30334  99.0214  77.0715 0144840   8.1013  55.0559 13.92330154950892"}}, "geometry": {"type": "Point", "coordinates": [82.07875715579289, -26.809584731501978]}}, {"type": "Feature", "properties": {"norad_id": 30335, "name": "FENGYUN 1C DEB", "group": "fengyun-1c-debris", "lat": -69.4361277640597, "lon": 124.47201821865406, "alt_km": 902.6297354680419, "timestamp": "2025-12-03T15:48:03.347022+00:00", "meta": {"OBJECT_NAME": "FENGYUN 1C DEB", "OBJECT_ID": "1999-025AAW", "EPOCH": "2025-12-02T23:30:05.554944", "MEAN_MOTION": 14.01355206, "ECCENTRICITY": 0.01323897, "INCLINATION": 98.9048, "RA_OF_ASC_NODE": 328.5118, "ARG_OF_PERICENTER": 158.7332, "MEAN_ANOMALY": 266.8048, "EPHEMERIS_TYPE": 0, "CLASSIFICATION_TYPE": "U", "NORAD_CAT_ID": 30335, "ELEMENT_SET_NO": 999, "REV_AT_EPOCH": 96454, "BSTAR": 0.00018825204, "MEAN_MOTION_DOT": 2.64e-06, "MEAN_MOTION_DDOT": 0}, "tle": {"line1": "1 30335U 99025AAW 25336.97923096  .00000264  00000+0  18825-3 0  9991", "line2": "2 30335  98.9048 328.5118 0132389 158.7332 266.8048 14.01355206964546"}}, "geometry": {"type": "Point", "coordinates": [124.47201821865406, -69.4361277640597]}}, {"type": "Feature", "properties": {"norad_id": 30336, "name": "FENGYUN 1C DEB", "group": "fengyun-1c-debris", "lat": -48.36615767111798, "lon": 169.06942447719584, "alt_km": 865.3149725949088, "timestamp": "2025-12-03T15:48:03.347031+00:00", "meta": {"OBJECT_NAME": "FENGYUN 1C DEB", "OBJECT_ID": "1999-025AAX", "EPOCH": "2025-12-03T08:00:36.995328", "MEAN_MOTION": 14.19283357, "ECCENTRICITY": 0.00440291, "INCLINATION": 98.6014, "RA_OF_ASC_NODE": 358.5581, "ARG_OF_PERICENTER": 35.6028, "MEAN_ANOMALY": 335.9105, "EPHEMERIS_TYPE": 0, "CLASSIFICATION_TYPE": "U", "NORAD_CAT_ID": 30336, "ELEMENT_SET_NO": 999, "REV_AT_EPOCH": 97469, "BSTAR": 0.00047975692, "MEAN_MOTION_DOT": 9.74e-06, "MEAN_MOTION_DDOT": 0}, "tle": {"line1": "1 30336U 99025AAX 25337.33376152  .00000974  00000+0  47976-3 0  9995", "line2": "2 30336  98.6014 358.5581 0044029  35.6028 335.9105 14.19283357974697"}}, "geometry": {"type": "Point", "coordinates": [169.06942447719584, -48.36615767111798]}}, {"type": "Feature", "properties": {"norad_id": 30338, "name": "FENGYUN 1C DEB", "group": "fengyun-1c-debris", "lat": 51.720279310625635, "lon": 36.484911705667265, "alt_km": 919.350108465912, "timestamp": "2025-12-03T15:48:03.347040+00:00", "meta": {"OBJECT_NAME": "FENGYUN 1C DEB", "OBJECT_ID": "1999-025AAZ", "EPOCH": "2025-12-03T04:04:20.230176", "MEAN_MOTION": 14.47316519, "ECCENTRICITY": 0.02721529, "INCLINATION": 98.461, "RA_OF_ASC_NODE": 46.8678, "ARG_OF_PERICENTER": 222.9857, "MEAN_ANOMALY": 165.4361, "EPHEMERIS_TYPE": 0, "CLASSIFICATION_TYPE": "U", "NORAD_CAT_ID": 30338, "ELEMENT_SET_NO": 999, "REV_AT_EPOCH": 98006, "BSTAR": 0.0017322081, "MEAN_MOTION_DOT": 0.00010071, "MEAN_MOTION_DDOT": 0}, "tle": {"line1": "1 30338U 99025AAZ 25337.16967859  .00010071  00000+0  17322-2 0  9998", "line2": "2 30338  98.4610  46.8678 0272152 222.9857 165.4361 14.47316519980060"}}, "geometry": {"type": "Point", "coordinates": [36.484911705667265, 51.720279310625635]}}, {"type": "Feature", "properties": {"norad_id": 30339, "name": "FENGYUN 1C DEB", "group": "fengyun-1c-debris", "lat": -42.657146579898246, "lon": -104.68694456377169, "alt_km": 777.6155200831945, "timestamp": "2025-12-03T15:48:03.347048+00:00", "meta": {"OBJECT_NAME": "FENGYUN 1C DEB", "OBJECT_ID": "1999-025ABA", "EPOCH": "2025-12-03T06:30:55.653408", "MEAN_MOTION": 14.37907234, "ECCENTRICITY": 0.0022178, "INCLINATION": 98.9744, "RA_OF_ASC_NODE": 83.2816, "ARG_OF_PERICENTER": 113.4175, "MEAN_ANOMALY": 267.9545, "EPHEMERIS_TYPE": 0, "CLASSIFICATION_TYPE": "U", "NORAD_CAT_ID": 30339, "ELEMENT_SET_NO": 999, "REV_AT_EPOCH": 97291, "BSTAR": 0.0034775239, "MEAN_MOTION_DOT": 0.00010496, "MEAN_MOTION_DDOT": 0}, "tle": {"line1": "1 30339U 99025ABA 25337.27147747  .00010496  00000+0  34775-2 0  9999", "line2": "2 30339  98.9744  83.2816 0022178 113.4175 267.9545 14.37907234972917"}}, "geometry": {"type": "Point", "coordinates": [-104.68694456377169, -42.657146579898246]}}, {"type": "Feature", "properties": {"norad_id": 30340, "name": "FENGYUN 1C DEB", "group": "fengyun-1c-debris", "lat": 76.7370257146375, "lon": -103.27239890286187, "alt_km": 816.9782240396489, "timestamp": "2025-12-03T15:48:03.347058+00:00", "meta": {"OBJECT_NAME": "FENGYUN 1C DEB", "OBJECT_ID": "1999-025ABB", "EPOCH": "2025-12-03T03:26:46.624416", "MEAN_MOTION": 14.04592638, "ECCENTRICITY": 0.01458589, "INCLINATION": 99.003, "RA_OF_ASC_NODE": 33.9488, "ARG_OF_PERICENTER": 161.4363, "MEAN_ANOMALY": 218.2102, "EPHEMERIS_TYPE": 0, "CLASSIFICATION_TYPE": "U", "NORAD_CAT_ID": 30340, "ELEMENT_SET_NO": 999, "REV_AT_EPOCH": 96646, "BSTAR": 7.1463523e-05, "MEAN_MOTION_DOT": 8.2e-07, "MEAN_MOTION_DDOT": 0}, "tle": {"line1": "1 30340U 99025ABB 25337.14359519  .00000082  00000+0  71464-4 0  9997", "line2": "2 30340  99.0030  33.9488 0145858 161.4363 218.2102 14.04592638966462"}}, "geometry": {"type": "Point", "coordinates": [-103.27239890286187, 76.7370257146375]}}, {"type": "Feature", "properties": {"norad_id": 30341, "name": "FENGYUN 1C DEB", "group": "fengyun-1c-debris", "lat": 66.15366862498766, "lon": -156.45886648579904, "alt_km": 738.4528059051772, "timestamp": "2025-12-03T15:48:03.347067+00:00", "meta": {"OBJECT_NAME": "FENGYUN 1C DEB", "OBJECT_ID": "1999-025ABC", "EPOCH": "2025-12-02T16:17:47.901696", "MEAN_MOTION": 14.33823701, "ECCENTRICITY": 0.00491054, "INCLINATION": 99.2195, "RA_OF_ASC_NODE": 224.0564, "ARG_OF_PERICENTER": 85.7836, "MEAN_ANOMALY": 329.9693, "EPHEMERIS_TYPE": 0, "CLASSIFICATION_TYPE": "U", "NORAD_CAT_ID": 30341, "ELEMENT_SET_NO": 999, "REV_AT_EPOCH": 96937, "BSTAR": 0.0036921951, "MEAN_MOTION_DOT": 0.00010378, "MEAN_MOTION_DDOT": 0}, "tle": {"line1": "1 30341U 99025ABC 25336.67902664  .00010378  00000+0  36922-2 0  9997", "line2": "2 30341  99.2195 224.0564 0049105  85.7836 329.9693 14.33823701969374"}}, "geometry": {"type": "Point", "coordinates": [-156.45886648579904, 66.15366862498766]}}, {"type": "Feature", "properties": {"norad_id": 30342, "name": "FENGYUN 1C DEB", "group": "fengyun-1c-debris", "lat": -20.612836880115537, "lon": -27.44598606555778, "alt_km": 896.4136398055061, "timestamp": "2025-12-03T15:48:03.347075+00:00", "meta": {"OBJECT_NAME": "FENGYUN 1C DEB", "OBJECT_ID": "1999-025ABD", "EPOCH": "2025-12-03T01:32:12.312096", "MEAN_MOTION": 13.8001988, "ECCENTRICITY": 0.01683428, "INCLINATION": 100.1958, "RA_OF_ASC_NODE": 155.7953, "ARG_OF_PERICENTER": 147.4795, "MEAN_ANOMALY": 340.5997, "EPHEMERIS_TYPE": 0, "CLASSIFICATION_TYPE": "U", "NORAD_CAT_ID": 30342, "ELEMENT_SET_NO": 999, "REV_AT_EPOCH": 94755, "BSTAR": 0.00088756524, "MEAN_MOTION_DOT": 9.76e-06, "MEAN_MOTION_DDOT": 0}, "tle": {"line1": "1 30342U 99025ABD 25337.06403139  .00000976  00000+0  88757-3 0  9992", "line2": "2 30342 100.1958 155.7953 0168342 147.4795 340.5997 13.80019880947559"}}, "geometry": {"type": "Point", "coordinates": [-27.44598606555778, -20.612836880115537]}}]}